NORAD_CAT_ID,OBJECT_NAME,OBJECT_TYPE,EPOCH,MEAN_MOTION,ECCENTRICITY,INCLINATION,RA_OF_ASC_NODE,ARG_OF_PERICENTER,MEAN_ANOMALY,BSTAR,MEAN_MOTION_DOT,MEAN_MOTION_DDOT,TLE_LINE0,TLE_LINE1,TLE_LINE2,SEMIMAJOR_AXIS,PERIOD,APOGEE,PERIGEE,DECAYED
51751.0,STARLINK-3506,PAYLOAD,2022-11-02 15:43:32,15.08827827,0.0001815,53.218,39.5464,36.9708,323.1409,-1.5823e-05,-5.400000000000002e-06,0.0,0 STARLINK-3506,1 51751U 22016AP  22306.65523826 -.00000540  00000-0 -15823-4 0  9994,2 51751  53.2180  39.5464 0001815  36.9708 323.1409 15.08827827 40171,6917.918000000002,95.438,541.038,538.5269999999998,0.0
51751.0,STARLINK-3506,PAYLOAD,2022-11-03 12:23:32,15.08852349,0.0002088,53.2195,35.6828,43.8965,316.2192,0.00020863,3.035e-05,0.0,0 STARLINK-3506,1 51751U 22016AP  22307.51635068  .00003035  00000-0  20863-3 0  9991,2 51751  53.2195  35.6828 0002088  43.8965 316.2192 15.08852349 40307,6917.843000000003,95.437,541.1519999999998,538.263,0.0
51751.0,STARLINK-3506,PAYLOAD,2022-11-03 17:09:41,15.08872717,0.0002245,53.2183,34.7899,44.4005,315.7167,0.00092912,0.00014543,0.0,0 STARLINK-3506,1 51751U 22016AP  22307.71506657  .00014543  00000-0  92912-3 0  9994,2 51751  53.2183  34.7899 0002245  44.4005 315.7167 15.08872717 40339,6917.78,95.435,541.198,538.092,0.0
51751.0,STARLINK-3506,PAYLOAD,2022-11-04 12:14:18,15.08854206,0.0002037,53.2185,31.2211,35.7524,324.3604,0.00022195,3.247e-05,0.0,0 STARLINK-3506,1 51751U 22016AP  22308.50994028  .00003247  00000-0  22195-3 0  9990,2 51751  53.2185  31.2211 0002037  35.7524 324.3604 15.08854206 40457,6917.837,95.437,541.111,538.293,0.0
51751.0,STARLINK-3506,PAYLOAD,2022-11-04 17:00:28,15.08841577,0.0001919,53.219,30.3298,33.8976,326.2139,0.00010346,1.359e-05,0.0,0 STARLINK-3506,1 51751U 22016AP  22308.70866075  .00001359  00000-0  10346-3 0  9999,2 51751  53.2190  30.3298 0001919  33.8976 326.2139 15.08841577 40480,6917.876,95.437,541.068,538.413,0.0
51751.0,STARLINK-3506,PAYLOAD,2022-11-05 12:05:07,15.08824648,0.0002115,53.2193,26.7614,36.9524,323.1614,-0.00026305,-4.471e-05,0.0,0 STARLINK-3506,1 51751U 22016AP  22309.50356461 -.00004471  00000-0 -26305-3 0  9993,2 51751  53.2193  26.7614 0002115  36.9524 323.1614 15.08824648 40604,6917.927,95.439,541.255,538.3290000000002,0.0
51751.0,STARLINK-3506,PAYLOAD,2022-11-05 16:51:17,15.08824854,0.0002101,53.219,25.8689,34.6868,325.4261,-0.00024937,-4.253e-05,0.0,0 STARLINK-3506,1 51751U 22016AP  22309.70228532 -.00004253  00000-0 -24937-3 0  9999,2 51751  53.2190  25.8689 0002101  34.6868 325.4261 15.08824854 39525,6917.927,95.439,541.245,538.3380000000002,0.0
51751.0,STARLINK-3506,PAYLOAD,2022-11-06 11:55:53,15.08841999,0.0002159,53.2178,22.301,27.3801,332.7305,-4.6382e-05,-1.026e-05,0.0,0 STARLINK-3506,1 51751U 22016AP  22310.49715126 -.00001026  00000-0 -46382-4 0  9991,2 51751  53.2178  22.3010 0002159  27.3801 332.7305 15.08841999 40756,6917.874,95.437,541.2330000000002,538.246,0.0
51751.0,STARLINK-3506,PAYLOAD,2022-11-06 16:42:04,15.08831367,0.0002313,53.2179,21.4097,33.6868,326.4271,-5.4183e-05,-1.15e-05,0.0,0 STARLINK-3506,1 51751U 22016AP  22310.69588057 -.00001150  00000-0 -54183-4 0  9990,2 51751  53.2179  21.4097 0002313  33.6868 326.4271 15.08831367 40780,6917.906999999997,95.438,541.372,538.172,0.0
51751.0,STARLINK-3506,PAYLOAD,2022-11-07 21:19:00,15.08835892,0.0002092,53.2181,16.0566,33.6226,326.4899,0.00025536,3.778e-05,0.0,0 STARLINK-3506,1 51751U 22016AP  22311.88820111  .00003778  00000-0  25536-3 0  9997,2 51751  53.2181  16.0566 0002092  33.6226 326.4899 15.08835892 40969,6917.893,95.438,541.205,538.311,0.0
51751.0,STARLINK-3506,PAYLOAD,2022-11-08 06:51:18,15.08851788,0.0001928,53.2169,14.2701,35.2827,324.8292,0.00021647,3.16e-05,0.0,0 STARLINK-3506,1 51751U 22016AP  22312.28563068  .00003160  00000-0  21647-3 0  9991,2 51751  53.2169  14.2701 0001928  35.2827 324.8292 15.08851788 41027,6917.844,95.437,541.043,538.376,0.0
51751.0,STARLINK-3506,PAYLOAD,2022-11-08 10:02:04,15.08859638,0.0002084,53.2166,13.6767,35.4234,324.6897,0.00033953,5.122e-05,0.0,0 STARLINK-3506,1 51751U 22016AP  22312.41810944  .00005122  00000-0  33953-3 0  9997,2 51751  53.2166  13.6767 0002084  35.4234 324.6897 15.08859638 39935,6917.82,95.436,541.127,538.244,0.0
51751.0,STARLINK-3506,PAYLOAD,2022-11-09 11:28:13,15.08857616,0.0002117,53.2167,8.9197,35.4846,324.6287,-0.00018421,-3.2200000000000003e-05,0.0,0 STARLINK-3506,1 51751U 22016AP  22313.47793102 -.00003220  00000-0 -18421-3 0  9992,2 51751  53.2167   8.9197 0002117  35.4846 324.6287 15.08857616 40092,6917.8269999999975,95.436,541.156,538.227,0.0
51751.0,STARLINK-3506,PAYLOAD,2022-11-09 21:00:33,15.08806163,0.0002237,53.2163,7.1353,41.9672,318.1491,-0.0012976,-0.00020862,0.0,0 STARLINK-3506,1 51751U 22016AP  22313.87538912 -.00020862  00000-0 -12976-2 0  9991,2 51751  53.2163   7.1353 0002237  41.9672 318.1491 15.08806163 40158,6917.984,95.44,541.396,538.3009999999998,0.0
51751.0,STARLINK-3506,PAYLOAD,2022-11-10 12:54:27,15.08792271,0.0002419,53.2159,4.1623,43.4591,316.6591,0.00040764,6.197e-05,0.0,0 STARLINK-3506,1 51751U 22016AP  22314.53781349  .00006197  00000-0  40764-3 0  9999,2 51751  53.2159   4.1623 0002419  43.4591 316.6591 15.08792271 40258,6918.026,95.441,541.565,538.2180000000002,0.0
51751.0,STARLINK-3506,PAYLOAD,2022-11-10 14:29:50,15.08792779,0.0002427,53.2159,3.865,43.3118,316.8065,0.00053798,8.273e-05,0.0,0 STARLINK-3506,1 51751U 22016AP  22314.60405594  .00008273  00000-0  53798-3 0  9990,2 51751  53.2159   3.8650 0002427  43.3118 316.8065 15.08792779 41372,6918.025,95.441,541.569,538.211,0.0
51751.0,STARLINK-3506,PAYLOAD,2022-11-11 11:09:52,15.088314000000002,0.0002637,53.2162,359.9996,43.6669,316.4532,0.0013516,0.00021284,0.0,0 STARLINK-3506,1 51751U 22016AP  22315.46519157  .00021284  00000-0  13516-2 0  9996,2 51751  53.2162 359.9996 0002637  43.6669 316.4532 15.08831400 40392,6917.906999999997,95.438,541.596,537.947,0.0
51751.0,STARLINK-3506,PAYLOAD,2022-11-11 12:45:15,15.08833816,0.0002642,53.2161,359.7024,43.434,316.686,0.0013425,0.00021139,0.0,0 STARLINK-3506,1 51751U 22016AP  22315.53143190  .00021139  00000-0  13425-2 0  9992,2 51751  53.2161 359.7024 0002642  43.4340 316.6860 15.08833816 41515,6917.899,95.438,541.592,537.937,0.0
51751.0,STARLINK-3506,PAYLOAD,2022-11-11 20:42:11,15.088496,0.0002626,53.2161,358.215,44.5235,315.5968,0.0013979,0.00022036,0.0,0 STARLINK-3506,1 51751U 22016AP  22315.86263101  .00022036  00000-0  13979-2 0  9994,2 51751  53.2161 358.2150 0002626  44.5235 315.5968 15.08849600 40453,6917.851,95.437,541.533,537.899,0.0
51751.0,STARLINK-3506,PAYLOAD,2022-11-12 09:25:15,15.08875334,0.0002734,53.2163,355.8363,45.3432,314.7783,0.0014658,0.00023141,0.0,0 STARLINK-3506,1 51751U 22016AP  22316.39254249  .00023141  00000-0  14658-2 0  9999,2 51751  53.2163 355.8363 0002734  45.3432 314.7783 15.08875334 40530,6917.772,95.435,541.529,537.746,0.0
51751.0,STARLINK-3506,PAYLOAD,2022-11-12 14:11:25,15.0886369,0.0003294,53.2166,354.9445,40.5563,319.5674,0.0008779,0.00013721,0.0,0 STARLINK-3506,1 51751U 22016AP  22316.59126209  .00013721  00000-0  87790-3 0  9996,2 51751  53.2166 354.9445 0003294  40.5563 319.5674 15.08863690 41678,6917.808000000001,95.436,541.952,537.394,0.0
51751.0,STARLINK-3506,PAYLOAD,2022-11-13 02:54:29,15.08861496,0.0002712,53.2164,352.564,47.0369,313.085,0.00029689,4.443e-05,0.0,0 STARLINK-3506,1 51751U 22016AP  22317.12117551  .00004443  00000-0  29689-3 0  9990,2 51751  53.2164 352.5640 0002712  47.0369 313.0850 15.08861496 41753,6917.815,95.436,541.556,537.804,0.0
51751.0,STARLINK-3506,PAYLOAD,2022-11-13 09:16:01,15.08861529,0.0002489,53.2167,351.375,43.7091,316.4098,0.00037292,5.655e-05,0.0,0 STARLINK-3506,1 51751U 22016AP  22317.38613239  .00005655  00000-0  37292-3 0  9997,2 51751  53.2167 351.3750 0002489  43.7091 316.4098 15.08861529 40680,6917.815,95.436,541.401,537.9580000000002,0.0
51751.0,STARLINK-3506,PAYLOAD,2022-11-13 18:48:20,15.08851834,0.0002738,53.2166,349.5905,44.6143,315.5069,0.00037145,5.629999999999999e-05,0.0,0 STARLINK-3506,1 51751U 22016AP  22317.78357422  .00005630  00000-0  37145-3 0  9990,2 51751  53.2166 349.5905 0002738  44.6143 315.5069 15.08851834 41851,6917.844,95.437,541.6030000000002,537.815,0.0
51751.0,STARLINK-3506,PAYLOAD,2022-11-14 09:06:49,15.08838674,0.0002435,53.2176,346.9147,46.3403,313.7791,1.1287e-05,-1.09e-06,0.0,0 STARLINK-3506,1 51751U 22016AP  22318.37973716 -.00000109  00000-0  11287-4 0  9993,2 51751  53.2176 346.9147 0002435  46.3403 313.7791 15.08838674 41942,6917.884,95.438,541.434,538.065,0.0
51751.0,STARLINK-3506,PAYLOAD,2022-11-14 13:52:58,15.08842382,0.0002522,53.2175,346.0215,44.8935,315.2261,0.00018865,2.716e-05,0.0,0 STARLINK-3506,1 51751U 22016AP  22318.57845718  .00002716  00000-0  18865-3 0  9998,2 51751  53.2175 346.0215 0002522  44.8935 315.2261 15.08842382 40868,6917.873000000001,95.437,541.4830000000002,537.993,0.0
51751.0,STARLINK-3506,PAYLOAD,2022-11-15 12:08:22,15.08841939,0.0002547,53.217,341.8593,38.0368,322.0804,0.00015403,2.164e-05,0.0,0 STARLINK-3506,1 51751U 22016AP  22319.50581569  .00002164  00000-0  15403-3 0  9995,2 51751  53.2170 341.8593 0002547  38.0368 322.0804 15.08841939 41000,6917.874,95.437,541.501,537.977,0.0
51751.0,STARLINK-3506,PAYLOAD,2022-11-15 18:29:54,15.08846565,0.0002519,53.2168,340.67,38.631,321.4862,0.00023974,3.53e-05,0.0,0 STARLINK-3506,1 51751U 22016AP  22319.77077388  .00003530  00000-0  23974-3 0  9993,2 51751  53.2168 340.6700 0002519  38.6310 321.4862 15.08846565 41047,6917.86,95.437,541.4680000000002,537.9830000000002,0.0
51751.0,STARLINK-3506,PAYLOAD,2022-11-16 08:48:22,15.08855324,0.0002425,53.216,337.9934,42.447,317.671,0.00032462,4.884e-05,0.0,0 STARLINK-3506,1 51751U 22016AP  22320.36692715  .00004884  00000-0  32462-3 0  9992,2 51751  53.2160 337.9934 0002425  42.4470 317.6710 15.08855324 42248,6917.834,95.437,541.376,538.021,0.0
